CAS-2T & KS-1Q          
1 41847U 16066G   20158.42172029  .00000069  00000-0  21776-4 0  9998
2 41847  98.6546 208.8248 0364498 261.7893  94.1810 14.38067956187835
NAYIF-1 (EO-88)         
1 42017U 17008BX  20158.47086008  .00001357  00000-0  54795-4 0  9999
2 42017  97.3602 226.1931 0006449  17.3885 342.7574 15.26475021183874
MAX VALIER SAT          
1 42778U 17036P   20158.30159602  .00000900  00000-0  41595-4 0  9994
2 42778  97.3055 212.2456 0013825  65.8271 294.4410 15.22605299164038
RADFXSAT (FOX-1B)       
1 43017U 17073E   20158.49701768  .00000576  00000-0  49461-4 0  9997
2 43017  97.7237  71.1559 0258553  86.0739 276.9986 14.78924233137541
FOX-1D (AO-92)          
1 43137U 18004AC  20158.45430950  .00000916  00000-0  40628-4 0  9997
2 43137  97.4461 229.6894 0010894  94.3075 265.9407 15.24107427133374
DIWATA-2B               
1 43678U 18084H   20158.60697127 -.00000308  00000-0 -24918-4 0  9994
2 43678  97.8823 277.0111 0009216 206.2082 153.8679 14.91628160 87400
ES'HAIL 2               
1 43700U 18090A   20157.99679865  .00000137  00000-0  00000+0 0  9996
2 43700   0.0175 330.5012 0001467 115.7824 193.2291  1.00268903  5831
FOX-1CLIFF (AO-95)      
1 43770U 18099N   20158.46481805  .00000334  00000-0  35774-4 0  9990
2 43770  97.7059 230.0367 0013480 229.6547 130.3498 14.94982554 82270
ITASAT 1                
1 43786U 18099AE  20158.46423310  .00000219  00000-0  25045-4 0  9996
2 43786  97.7074 230.4477 0014253 223.1505 136.8599 14.95322261 82291
JY1SAT (JO-97)          
1 43803U 18099AX  20158.14552453  .00000741  00000-0  72040-4 0  9999
2 43803  97.7036 229.9558 0014100 224.1088 135.9009 14.95499311 82242
PSAT2 (NO-104)          
1 44354U 19036R   20158.17096658  .00005672  00000-0  79479-4 0  9997
2 44354  28.5312  94.6827 0364707 190.5218 168.7568 15.03371180 52122
BRICSAT2 (NO-103)       
1 44355U 19036S   20158.48297830  .00010422  00000-0  14319-3 0  9997
2 44355  28.5320  84.5344 0343965 207.0407 151.1878 15.08616830 52254
JAISAT-1                
1 44419U 19038F   20158.44283887  .00000717  00000-0  44449-4 0  9997
2 44419  97.5379 120.1682 0021908 164.2477 195.9440 15.12767253 50933
DUCHIFAT-3              
1 44854U 19089C   20158.37089356  .00000226  00000-0  24748-4 0  9998
2 44854  36.9661 163.8467 0009255 331.9151  28.1070 14.99061590 26636
RS-44 & BREEZE-KM R/B   
1 44909U 19096E   20158.25620482  .00000027  00000-0  69322-4 0  9991
2 44909  82.5218   2.7570 0216332 252.6233 105.1107 12.79707740 20758
ORBITAL FACTORY 2 (OF-2)
1 45113U 19071C   20158.14371176  .00001775  00000-0  65787-4 0  9995
2 45113  51.6441  58.1812 0013320  19.7556 340.3939 15.33314753 19392
HUSKYSAT-1              
1 45119U 19071J   20158.44955403  .00001581  00000-0  59489-4 0  9992
2 45119  51.6448  56.4740 0012577  17.3354 342.8055 15.33537866 19432
